[{"OBJECT_NAME":"STARLINK-5435","OBJECT_ID":"2022-175AR","EPOCH":"2026-03-09T08:59:40.583328","MEAN_MOTION":15.08817865,"ECCENTRICITY":0.00013284,"INCLINATION":53.2195,"RA_OF_ASC_NODE":45.378,"ARG_OF_PERICENTER":92.0824,"MEAN_ANOMALY":268.0321,"EPHEMERIS_TYPE":0,"CLASSIFICATION_TYPE":"U","NORAD_CAT_ID":54797,"ELEMENT_SET_NO":999,"REV_AT_EPOCH":17987,"BSTAR":3.3609114e-5,"MEAN_MOTION_DOT":2.47e-6,"MEAN_MOTION_DDOT":0},{"OBJECT_NAME":"DMSP 5D-2 F13 DEB","OBJECT_ID":"1995-015BF","EPOCH":"2026-03-08T19:32:26.019456","MEAN_MOTION":15.08152744,"ECCENTRICITY":0.00224007,"INCLINATION":98.6145,"RA_OF_ASC_NODE":204.4302,"ARG_OF_PERICENTER":265.1662,"MEAN_ANOMALY":94.7005,"EPHEMERIS_TYPE":0,"CLASSIFICATION_TYPE":"U","NORAD_CAT_ID":40463,"ELEMENT_SET_NO":999,"REV_AT_EPOCH":57796,"BSTAR":0.0090845916,"MEAN_MOTION_DOT":0.00143794,"MEAN_MOTION_DDOT":0}]
